algorithm,apogee,argOfPerigee,bStar,classificationMarking,elset_created_at,elset_created_by,dataMode,eccentricity,idElset,idOnOrbit,inclination,line1,line2,meanAnomaly,meanMotion,meanMotionDDot,meanMotionDot,origNetwork,perigee,period,raan,revNo,satNo,semiMajorAxis,source,__START_AT,__END_AT,COUNTRY,LAUNCH,LAUNCH_NUM,LAUNCH_PIECE,NORAD_CAT_ID,OBJECT_ID,OBJECT_NAME,OBJECT_NUMBER,OBJECT_TYPE,RCS_SIZE,SATNAME,SITE,satcat_current_fetch_date
SGP4,6938.103,270.0522,1.2265E-4,U,2024-02-01T07:05:15.346Z,system.ob-ingest,REAL,1.317E-4,841fe196-7f24-4b09-8157-5ff114074980,57984,43.0019,1 57984U 23151W   24031.96540199 +.00001454 +00000+0 +12265-3 0 99999,2 57984  43.0019 203.4694 0001317 270.0522  90.0170 15.02544724020081,90.017,15.02544724,0.0,1.454E-5,OPS1,6936.276,95.837,203.4694,2008,57984,6937.19,18th SPCS,2024-01-31T23:10:10.731936Z,2024-02-01T10:20:17.332224Z,US,2023-09-30,151,W,57984,2023-151W,STARLINK-30516,57984,PAYLOAD,LARGE,STARLINK-30516,AFETR,2024-08-21
SGP4,6932.263,268.0652,-0.0053069,U,2024-02-01T05:05:15.753Z,system.ob-ingest,REAL,1.718E-4,54ff091c-c32c-461d-a4e3-b0ace3414dae,57994,42.9995,1 57994U 23153D   24031.91667824 -.00075021 +00000+0 -53069-2 0 99991,2 57994  42.9995 281.0334 0001718 268.0652 264.3452 15.04534529005550,264.3452,15.04534529,0.0,-7.5021E-4,OPS1,6929.881,95.711,281.0334,555,57994,6931.072,18th SPCS,2024-01-31T22:00:00.999936Z,2024-02-01T06:00:00.999648Z,US,2023-10-05,153,D,57994,2023-153D,STARLINK-30538,57994,PAYLOAD,LARGE,STARLINK-30538,AFETR,2024-08-21
SGP4,6899.723,258.7527,0.0013888,U,2024-02-01T05:05:15.773Z,system.ob-ingest,REAL,1.509E-4,aa1a27a1-4d7a-45a9-ae7c-be8a1a1f14d0,57999,43.0005,1 57999U 23153J   24031.90073839 +.00026376 +00000+0 +13888-2 0 99994,2 57999  43.0005 281.3204 0001509 258.7527 101.3151 15.15142690019370,101.3151,15.1514269,0.0,2.6376E-4,OPS1,6897.641,95.041,281.3204,1937,57999,6898.682,18th SPCS,2024-01-31T21:37:03.796896Z,2024-02-01T02:21:51.202656Z,US,2023-10-05,153,J,57999,2023-153J,STARLINK-30552,57999,PAYLOAD,LARGE,STARLINK-30552,AFETR,2024-08-21
SGP4,6937.864,233.6133,1.242E-4,U,2024-02-01T05:05:15.601Z,system.ob-ingest,REAL,9.6E-5,4e674c3d-aa2c-4a9c-9835-46e4af0938ca,58139,43.0019,1 58139U 23162X   24031.92582294 +.00001475 +00000+0 +12420-3 0 99998,2 58139  43.0019 345.2984 0000960 233.6133 126.4620 15.02541987016804,126.462,15.02541987,0.0,1.475E-5,OPS1,6936.532,95.838,345.2984,1680,58139,6937.198,18th SPCS,2024-01-31T22:13:11.102016Z,2024-02-01T01:24:38.453760Z,US,2023-10-22,162,X,58139,2023-162X,STARLINK-30775,58139,PAYLOAD,LARGE,STARLINK-30775,AFETR,2024-08-21
SGP4,6932.069,258.8806,6.329E-4,U,2024-02-01T05:05:15.678Z,system.ob-ingest,REAL,1.318E-4,e2565346-ee78-43f3-9ec2-47c34bea4009,58182,43.001,1 58182U 23167H   24031.91876692 +.00008815 +00000+0 +63290-3 0 99994,2 58182  43.0010 357.6884 0001318 258.8806 101.1889 15.04507242015469,101.1889,15.04507242,0.0,8.815E-5,OPS1,6930.242,95.712,357.6884,1546,58182,6931.156,18th SPCS,2024-01-31T22:03:01.461888Z,2024-02-01T02:49:50.087712Z,US,2023-10-30,167,H,58182,2023-167H,STARLINK-30778,58182,PAYLOAD,LARGE,STARLINK-30778,AFETR,2024-08-21
SGP4,6896.675,224.8874,0.0010577,U,2024-01-31T23:05:17.759Z,system.ob-ingest,REAL,7.8E-5,c6313011-caed-49e0-aeac-193a17b7f6e2,58225,42.9989,1 58225U 23170V   24031.42911589 +.00020503 +00000+0 +10577-2 0 99994,2 58225  42.9989  44.4205 0000780 224.8874 135.1910 15.15981501014780,135.191,15.15981501,0.0,2.0503E-4,OPS1,6895.6,94.988,44.4205,1478,58225,6896.137,18th SPCS,2024-01-31T10:17:55.612896Z,2024-02-01T00:31:50.716128Z,US,2023-11-03,170,V,58225,2023-170V,STARLINK-30872,58225,PAYLOAD,LARGE,STARLINK-30872,AFETR,2024-08-21
SGP4,6897.295,274.3336,0.0016834,U,2024-01-31T23:05:17.745Z,system.ob-ingest,REAL,1.476E-4,4434bc8f-9dd3-4505-b425-7669314a6c7d,58404,42.9995,1 58404U 23180C   24031.68577972 +.00032783 +00000+0 +16834-2 0 99991,2 58404  42.9995 272.0134 0001476 274.3336  85.7343 15.15935433012031,85.7343,15.15935433,0.0,3.2783E-4,OPS1,6895.259,94.991,272.0134,1203,58404,6896.277,18th SPCS,2024-01-31T16:27:31.367808Z,2024-02-01T01:56:48.331680Z,US,2023-11-22,180,C,58404,2023-180C,STARLINK-30876,58404,PAYLOAD,LARGE,STARLINK-30876,AFETR,2024-08-21
SGP4,6867.107,273.8424,5.5415E-4,U,2024-01-31T23:05:17.638Z,system.ob-ingest,REAL,1.357E-4,c4c03daf-a052-4092-b1bb-da4e061acbd1,58489,42.9978,1 58489U 23186S   24031.74693953 +.00014268 +00000+0 +55415-3 0 99992,2 58489  42.9978 283.5824 0001357 273.8424  86.2272 15.25915308010246,86.2272,15.25915308,0.0,1.4268E-4,OPS1,6865.244,94.37,283.5824,1024,58489,6866.175,18th SPCS,2024-01-31T17:55:35.575392Z,2024-02-01T00:12:37.570752Z,US,2023-12-03,186,S,58489,2023-186S,STARLINK-30993,58489,PAYLOAD,LARGE,STARLINK-30993,AFETR,2024-08-21
SGP4,6866.625,251.7781,1.9405E-4,U,2024-02-01T05:05:15.738Z,system.ob-ingest,REAL,6.53E-5,d5120c04-ea50-4009-afb2-0aefc0337668,58620,42.9997,1 58620U 23203C   24031.60368257 +.00004823 +00000+0 +19405-3 0 99995,2 58620  42.9997  79.5997 0000653 251.7781 108.2999 15.25914931006154,108.2999,15.25914931,0.0,4.823E-5,OPS1,6865.728,94.37,79.5997,615,58620,6866.176,18th SPCS,2024-01-31T14:29:18.174048Z,2024-02-01T10:54:41.484384Z,US,2023-12-23,203,C,58620,2023-203C,STARLINK-31118,58620,PAYLOAD,LARGE,STARLINK-31118,AFETR,2024-08-21
SGP4,6866.607,242.0648,2.3428E-4,U,2024-01-31T23:05:17.933Z,system.ob-ingest,REAL,8.75E-5,485b7072-cbb2-462a-9117-baded2b4c2ec,58623,43.0023,1 58623U 23203F   24031.59911700 +.00005887 +00000+0 +23428-3 0 99994,2 58623  43.0023  79.5643 0000875 242.0648 118.0115 15.25971537007322,118.0115,15.25971537,0.0,5.887E-5,OPS1,6865.406,94.366,79.5643,732,58623,6866.007,18th SPCS,2024-01-31T14:22:43.708800Z,2024-02-01T10:48:10.495872Z,US,2023-12-23,203,F,58623,2023-203F,STARLINK-31068,58623,PAYLOAD,LARGE,STARLINK-31068,AFETR,2024-08-21
SGP4,6866.816,280.0541,3.0903E-4,U,2024-01-31T23:05:17.945Z,system.ob-ingest,REAL,1.064E-4,53050962-4f0d-47d6-8021-582327caa559,58625,43.0013,1 58625U 23203H   24031.59007733 +.00007843 +00000+0 +30903-3 0 99998,2 58625  43.0013  79.4932 0001064 280.0541  80.0190 15.25945409007384,80.019,15.25945409,0.0,7.843E-5,OPS1,6865.354,94.368,79.4932,738,58625,6866.085,18th SPCS,2024-01-31T14:09:42.681312Z,2024-02-01T10:35:09.832992Z,US,2023-12-23,203,H,58625,2023-203H,STARLINK-30774,58625,PAYLOAD,LARGE,STARLINK-30774,AFETR,2024-08-21
SGP4,6861.001,65.9082,0.0024975,U,2024-02-01T05:05:15.563Z,system.ob-ingest,REAL,1.913E-4,aa2d00ca-e9d9-4891-8ce6-cbb0b14c9d8c,58716,53.1584,1 58716U 24002M   24031.63500268 +.00069606 +00000+0 +24975-2 0 99999,2 58716  53.1584 112.7748 0001913  65.9082 294.2118 15.28080068005638,294.2118,15.28080068,0.0,6.9606E-4,OPS1,6858.377,94.236,112.7748,563,58716,6859.689,18th SPCS,2024-01-31T15:14:24.231552Z,2024-02-01T11:38:50.492832Z,US,2024-01-03,2,M,58716,2024-002M,STARLINK-31098,58716,PAYLOAD,LARGE,STARLINK-31098,AFWTR,2024-08-21
SGP4,6861.148,125.1846,9.0674E-4,U,2024-01-31T23:05:17.695Z,system.ob-ingest,REAL,1.976E-4,1c5b2f5a-d2a1-47ba-9b35-10eb47ccd2ec,58725,53.1596,1 58725U 24002W   24031.61629384 +.00024868 +00000+0 +90674-3 0 99999,2 58725  53.1596 112.6598 0001976 125.1846 234.9339 15.28045674005482,234.9339,15.28045674,0.0,2.4868E-4,OPS1,6858.437,94.238,112.6598,548,58725,6859.792,18th SPCS,2024-01-31T14:47:27.787776Z,2024-02-01T11:11:54.760128Z,US,2024-01-03,2,W,58725,2024-002W,STARLINK-30856,58725,PAYLOAD,LARGE,STARLINK-30856,AFWTR,2024-08-21
SGP4,6530.083,286.6775,0.00105,U,2023-07-16T16:05:11.953Z,system.ob-ingest,REAL,0.0011154,faa51297-a6bf-4e71-876b-f51b345a7ebc,45195,53.0144,1 45195U 20012T   23197.61122800 +.72662032 +12630-4 +10500-2 0 99992,2 45195  53.0144   6.1866 0011154 286.6775 118.4778 16.47976116189016,118.4778,16.47976116,1.263E-5,0.72662032,OPS1,6515.532,87.38,6.1866,18901,45195,6522.808,18th SPCS,2023-07-16T14:40:10.099200Z,"",US,2020-02-17,12,T,45195,2020-012T,STARLINK-1241,45195,PAYLOAD,LARGE,STARLINK-1241,AFETR,2024-08-21
SGP4,6926.273,84.8467,1.5015E-4,U,2024-02-01T05:05:13.616Z,system.ob-ingest,REAL,1.355E-4,7f6bc72f-aba3-4076-ad30-2ae77ede0d8d,45227,53.054,1 45227U 20012BB  24031.89983673 +.00001956 +00000+0 +15015-3 0 99992,2 45227  53.0540 213.3606 0001355  84.8467 275.2676 15.06404566219599,275.2676,15.06404566,0.0,1.956E-5,OPS1,6924.396,95.592,213.3606,21959,45227,6925.335,18th SPCS,2024-01-31T21:35:45.893472Z,2024-02-01T11:55:37.985952Z,US,2020-02-17,12,BB,45227,2020-012BB,STARLINK-1221,45227,PAYLOAD,LARGE,STARLINK-1221,AFETR,2024-08-21
SGP4,6926.336,96.7701,3.3774E-5,U,2024-01-31T23:05:14.898Z,system.ob-ingest,REAL,1.422E-4,63c77daa-5579-49ff-8562-88a2359e0aa3,45233,53.0531,1 45233U 20012BH  24031.58837968 +.00000222 +00000+0 +33774-4 0 99998,2 45233  53.0531 234.7586 0001422  96.7701 263.3449 15.06399077218403,263.3449,15.06399077,0.0,2.22E-6,OPS1,6924.367,95.592,234.7586,21840,45233,6925.351,18th SPCS,2024-01-31T14:07:16.004352Z,2024-02-01T21:58:03.856224Z,US,2020-02-17,12,BH,45233,2020-012BH,STARLINK-1238,45233,PAYLOAD,LARGE,STARLINK-1238,AFETR,2024-08-21
SGP4,6926.455,87.9132,2.3506E-4,U,2024-02-01T05:05:14.193Z,system.ob-ingest,REAL,1.563E-4,7835e206-ec65-4d62-8288-0ec0b2872681,45371,53.0558,1 45371U 20019M   24031.93575685 +.00003221 +00000+0 +23506-3 0 99995,2 45371  53.0558  13.1891 0001563  87.9132 272.2036 15.06392279214010,272.2036,15.06392279,0.0,3.221E-5,OPS1,6924.29,95.593,13.1891,21401,45371,6925.372,18th SPCS,2024-01-31T22:27:29.391840Z,2024-02-01T04:49:38.557344Z,US,2020-03-18,19,M,45371,2020-019M,STARLINK-1287,45371,PAYLOAD,LARGE,STARLINK-1287,AFETR,2024-08-21
